OBJECT_NAME,OBJECT_ID,EPOCH,MEAN_MOTION,ECCENTRICITY,INCLINATION,RA_OF_ASC_NODE,ARG_OF_PERICENTER,MEAN_ANOMALY,EPHEMERIS_TYPE,CLASSIFICATION_TYPE,NORAD_CAT_ID,ELEMENT_SET_NO,REV_AT_EPOCH,BSTAR,MEAN_MOTION_DOT,MEAN_MOTION_DDOT
STARLINK-38067,2026-150J,2026-07-07T12:00:02.999808,15.88138566,.00017469,97.2872,26.4298,72.4920,24.0485,0,U,69747,999,206,-.10002236E-1,-.2306853E-1,0
STARLINK-37988,2026-150K,2026-07-07T12:00:02.999808,15.88271186,.00017145,97.2872,26.4306,68.6252,30.1759,0,U,69748,999,206,-.99670324E-2,-.2312868E-1,0
STARLINK-37987,2026-150L,2026-07-07T12:00:02.999808,15.88546603,.00017209,97.2872,26.4323,70.2730,32.0449,0,U,69749,999,206,-.98084189E-2,-.2308659E-1,0
STARLINK-38037,2026-150M,2026-07-07T12:00:02.999808,15.89304510,.00018464,97.2875,26.4355,69.5007,40.8416,0,U,69750,999,206,-.9443533E-2,-.2679209E-1,.18572988E-2
STARLINK-38049,2026-150N,2026-07-07T12:00:02.999808,15.89633366,.0001755,97.2873,26.4371,69.4633,44.5948,0,U,69751,999,206,-.92233992E-2,-.2660159E-1,.18380243E-2
STARLINK-38029,2026-150P,2026-07-07T12:00:02.999808,15.91686372,.00016777,97.2876,26.4454,73.8264,58.7432,0,U,69752,999,206,-.82656432E-2,-.2645157E-1,.18599727E-2
STARLINK-37965,2026-150Q,2026-07-07T12:00:02.999808,15.91656042,.00017018,97.2876,26.4457,72.2725,61.3789,0,U,69753,999,206,-.82467176E-2,-.263505E-1,.18453178E-2
STARLINK-38048,2026-150R,2026-07-07T12:00:02.999808,15.91659712,.00016953,97.2876,26.4463,76.5368,58.3963,0,U,69754,999,206,-.83099915E-2,-.2655691E-1,.18740806E-2
STARLINK-38006,2026-150S,2026-07-07T12:00:02.999808,15.92557563,.00017572,97.2874,26.4498,74.7254,68.5549,0,U,69755,999,206,-.78823091E-2,-.2638273E-1,.18690543E-2
STARLINK-38036,2026-150T,2026-07-07T12:00:02.999808,15.92948261,.0001693,97.2875,26.4519,75.2937,72.3482,0,U,69756,999,206,-.7641166E-2,-.2609978E-1,.1837903E-2
STARLINK-38058,2026-150U,2026-07-07T12:00:02.999808,15.92972747,.00017093,97.2875,26.4523,75.8944,73.0453,0,U,69757,999,206,-.7706058E-2,-.2635424E-1,.18740936E-2
STARLINK-38066,2026-150V,2026-07-07T12:00:02.999808,15.92958349,.00017395,97.2875,26.4526,76.3698,73.4591,0,U,69758,999,206,-.76517424E-2,-.2614965E-1,.18450731E-2
STARLINK-38035,2026-150W,2026-07-07T12:00:02.999808,15.92940141,.00017075,97.2875,26.4530,73.6314,77.1556,0,U,69759,999,206,-.77152026E-2,-.2634085E-1,.18714945E-2
STARLINK-38056,2026-150X,2026-07-07T12:00:02.999808,15.94039925,.00017444,97.2875,26.4571,73.7855,86.7085,0,U,69760,999,206,-.72403139E-2,-.2618407E-1,.18735879E-2
STARLINK-38069,2026-150Y,2026-07-07T12:00:02.999808,15.95102544,.00016642,97.2875,26.4613,76.7846,92.6974,0,U,69761,999,206,-.67563694E-2,-.2584946E-1,.18497389E-2
STARLINK-38019,2026-150Z,2026-07-07T12:00:02.999808,15.95111999,.00018747,97.2874,26.4617,78.3034,92.6327,0,U,69762,999,206,-.67777472E-2,-.259451E-1,.18635774E-2
LINK,2026-152A,2026-07-06T04:51:39.166560,15.64575315,.00230587,20.5939,36.4975,227.0468,132.8043,0,U,69792,999,44,.18927835E-2,.199079E-2,0
2026-152B,2026-152B,2026-07-05T22:44:43.605024,15.64059707,.002215,20.5985,38.4619,223.3006,136.5698,0,U,69793,999,40,.62935E-3,.64375E-3,0
