STARLINK-38067          
1 69747U 26150J   26188.50003472 -.02306853  00000+0 -10002-1 0  9995
2 69747  97.2872  26.4298 0001746  72.4920  24.0485 15.88138566  2065
STARLINK-37988          
1 69748U 26150K   26188.50003472 -.02312868  00000+0 -99670-2 0  9998
2 69748  97.2872  26.4306 0001714  68.6252  30.1759 15.88271186  2064
STARLINK-37987          
1 69749U 26150L   26188.50003472 -.02308659  00000+0 -98084-2 0  9990
2 69749  97.2872  26.4323 0001720  70.2730  32.0449 15.88546603  2067
STARLINK-38037          
1 69750U 26150M   26188.50003472 -.02679209  18573-2 -94435-2 0  9997
2 69750  97.2875  26.4355 0001846  69.5007  40.8416 15.89304510  2065
STARLINK-38049          
1 69751U 26150N   26188.50003472 -.02660159  18380-2 -92234-2 0  9993
2 69751  97.2873  26.4371 0001755  69.4633  44.5948 15.89633366  2060
STARLINK-38029          
1 69752U 26150P   26188.50003472 -.02645157  18600-2 -82656-2 0  9997
2 69752  97.2876  26.4454 0001677  73.8264  58.7432 15.91686372  2061
STARLINK-37965          
1 69753U 26150Q   26188.50003472 -.02635050  18453-2 -82467-2 0  9995
2 69753  97.2876  26.4457 0001701  72.2725  61.3789 15.91656042  2064
STARLINK-38048          
1 69754U 26150R   26188.50003472 -.02655691  18741-2 -83100-2 0  9994
2 69754  97.2876  26.4463 0001695  76.5368  58.3963 15.91659712  2061
STARLINK-38006          
1 69755U 26150S   26188.50003472 -.02638273  18691-2 -78823-2 0  9992
2 69755  97.2874  26.4498 0001757  74.7254  68.5549 15.92557563  2066
STARLINK-38036          
1 69756U 26150T   26188.50003472 -.02609978  18379-2 -76412-2 0  9998
2 69756  97.2875  26.4519 0001693  75.2937  72.3482 15.92948261  2063
STARLINK-38058          
1 69757U 26150U   26188.50003472 -.02635424  18741-2 -77061-2 0  9998
2 69757  97.2875  26.4523 0001709  75.8944  73.0453 15.92972747  2063
STARLINK-38066          
1 69758U 26150V   26188.50003472 -.02614965  18451-2 -76517-2 0  9999
2 69758  97.2875  26.4526 0001739  76.3698  73.4591 15.92958349  2061
STARLINK-38035          
1 69759U 26150W   26188.50003472 -.02634085  18715-2 -77152-2 0  9994
2 69759  97.2875  26.4530 0001707  73.6314  77.1556 15.92940141  2060
STARLINK-38056          
1 69760U 26150X   26188.50003472 -.02618407  18736-2 -72403-2 0  9993
2 69760  97.2875  26.4571 0001744  73.7855  86.7085 15.94039925  2063
STARLINK-38069          
1 69761U 26150Y   26188.50003472 -.02584946  18497-2 -67564-2 0  9990
2 69761  97.2875  26.4613 0001664  76.7846  92.6974 15.95102544  2067
STARLINK-38019          
1 69762U 26150Z   26188.50003472 -.02594510  18636-2 -67777-2 0  9990
2 69762  97.2874  26.4617 0001874  78.3034  92.6327 15.95111999  2067
LINK                    
1 69792U 26152A   26187.20253665  .00199079  00000+0  18928-2 0  9996
2 69792  20.5939  36.4975 0023058 227.0468 132.8043 15.64575315   445
2026-152B               
1 69793U 26152B   26186.94772691  .00064375  00000+0  62935-3 0  9990
2 69793  20.5985  38.4619 0022150 223.3006 136.5698 15.64059707   408
